0 irnss1b 2021-01-08 0.06144150558387757 2021-01-01 2021-01-08
1 99999U          21008.00000000 +.00000000 +19335-1 +00000-0 4    00
2 99999 029.0032 273.8673 0017240 179.1022 069.9571 01.00277605    00
0 irnss1b 2021-01-09 0.07823520973487613 2021-01-02 2021-01-09
1 99999U          21009.00000000 +.00000000 +20000-1 +00000-0 4    00
2 99999 029.0025 273.8527 0017338 178.6106 071.4617 01.00279368    00
0 irnss1b 2021-01-10 0.10506723825300752 2021-01-03 2021-01-10
1 99999U          21010.00000000 +.00000000 +18006-1 +00000-0 4    00
2 99999 029.0007 273.8404 0017517 178.4663 072.6173 01.00280578    00
0 irnss1b 2021-01-11 0.09517315079794633 2021-01-04 2021-01-11
1 99999U          21011.00000000 +.00000000 +17952-1 +00000-0 4    00
2 99999 028.9975 273.8300 0017720 178.5875 073.5067 01.00280962    00
0 irnss1b 2021-01-12 0.30713488243713455 2021-01-05 2021-01-12
1 99999U          21012.00000000 +.00000000 +16267-1 +00000-0 4    00
2 99999 028.9928 273.8195 0017915 178.9698 074.1392 01.00280677    00
0 irnss1b 2021-01-13 1.7362495248520586 2021-01-06 2021-01-13
1 99999U          21013.00000000 +.00000000 +74492-2 +00000-0 4    00
2 99999 028.9871 273.8079 0018020 179.5945 074.5310 01.00279657    00
0 irnss1b 2021-01-14 15.5916781339822 2021-01-07 2021-01-14
1 99999U          21014.00000000 +.00000000 +14103-1 +00000-0 4    00
2 99999 028.9809 273.7947 0018196 178.9724 076.1123 01.00275172    00
0 irnss1b 2021-01-15 16.47366277434474 2021-01-08 2021-01-15
1 99999U          21015.00000000 +.00000000 +65755-2 +00000-0 4    00
2 99999 028.9750 273.7787 0018246 179.2202 076.8730 01.00273237    00
0 irnss1b 2021-01-16 3.9233342894380465 2021-01-09 2021-01-16
1 99999U          21016.00000000 +.00000000 +90647-2 +00000-0 4    00
2 99999 028.9700 273.7608 0018373 177.9319 079.1046 01.00266143    00
0 irnss1b 2021-01-17 3.523422216099566 2021-01-10 2021-01-17
1 99999U          21017.00000000 +.00000000 +33115-2 +00000-0 4    00
2 99999 028.9660 273.7415 0018362 178.0911 079.9412 01.00265867    00
0 irnss1b 2021-01-18 3.3739582298592485 2021-01-11 2021-01-18
1 99999U          21018.00000000 +.00000000 +16256-1 +00000-0 4    00
2 99999 028.9635 273.7212 0018377 177.8171 081.2122 01.00265974    00
0 irnss1b 2021-01-19 0.13409886131155996 2021-01-12 2021-01-19
1 99999U          21019.00000000 +.00000000 +15250-1 +00000-0 4    00
2 99999 028.9617 273.7021 0018427 177.7436 082.2780 01.00266202    00
0 irnss1b 2021-01-20 0.13748196781309732 2021-01-13 2021-01-20
1 99999U          21020.00000000 +.00000000 +20589-1 +00000-0 4    00
2 99999 028.9606 273.6830 0018372 177.3755 083.6404 01.00266954    00
0 irnss1b 2021-01-21 0.16641812134253806 2021-01-14 2021-01-21
1 99999U          21021.00000000 +.00000000 +17020-1 +00000-0 4    00
2 99999 028.9600 273.6658 0018281 177.0787 084.9307 01.00267982    00
0 irnss1b 2021-01-22 0.07995791575081075 2021-01-15 2021-01-22
1 99999U          21022.00000000 +.00000000 +19550-1 +00000-0 4    00
2 99999 028.9592 273.6497 0018218 176.4999 086.5013 01.00269081    00
0 irnss1b 2021-01-23 0.12911359423333385 2021-01-16 2021-01-23
1 99999U          21023.00000000 +.00000000 +20476-1 +00000-0 4    00
2 99999 028.9579 273.6361 0018172 175.8865 088.1046 01.00270225    00
0 irnss1b 2021-01-24 0.251857140764335 2021-01-17 2021-01-24
1 99999U          21024.00000000 +.00000000 +15676-1 +00000-0 4    00
2 99999 028.9560 273.6229 0018159 175.3965 089.5860 01.00271407    00
0 irnss1b 2021-01-25 0.0643054277653522 2021-01-18 2021-01-25
1 99999U          21025.00000000 +.00000000 +20300-1 +00000-0 4    00
2 99999 028.9530 273.6110 0018224 174.7926 091.1798 01.00272329    00
0 irnss1b 2021-01-26 0.11304201392855272 2021-01-19 2021-01-26
1 99999U          21026.00000000 +.00000000 +20589-1 +00000-0 4    00
2 99999 028.9490 273.5991 0018324 174.4863 092.4786 01.00273066    00
0 irnss1b 2021-01-27 0.1280239163979849 2021-01-20 2021-01-27
1 99999U          21027.00000000 +.00000000 +18958-1 +00000-0 4    00
2 99999 028.9440 273.5866 0018439 174.5128 093.4482 01.00273486    00
0 irnss1b 2021-01-28 0.05512888575170452 2021-01-21 2021-01-28
1 99999U          21028.00000000 +.00000000 +19694-1 +00000-0 4    00
2 99999 028.9384 273.5723 0018554 174.7873 094.1733 01.00273411    00
0 irnss1b 2021-01-29 0.050757669918514485 2021-01-22 2021-01-29
1 99999U          21029.00000000 +.00000000 +20713-1 +00000-0 4    00
2 99999 028.9327 273.5558 0018621 175.3168 094.6481 01.00272851    00
0 irnss1b 2021-01-30 0.06899573386762474 2021-01-23 2021-01-30
1 99999U          21030.00000000 +.00000000 +19550-1 +00000-0 4    00
2 99999 028.9273 273.5369 0018600 176.0175 094.9565 01.00271895    00
0 irnss1b 2021-01-31 0.05466577858323109 2021-01-24 2021-01-31
1 99999U          21031.00000000 +.00000000 +19550-1 +00000-0 4    00
2 99999 028.9229 273.5158 0018496 176.6375 095.3490 01.00270708    00
0 irnss1b 2021-02-01 0.11273253219030428 2021-01-25 2021-02-01
1 99999U          21032.00000000 +.00000000 +20000-1 +00000-0 4    00
2 99999 028.9198 273.4933 0018332 177.0390 095.9621 01.00269640    00
0 irnss1b 2021-02-02 0.656244160629725 2021-01-26 2021-02-02
1 99999U          21033.00000000 +.00000000 +52118-2 +00000-0 4    00
2 99999 028.9180 273.4704 0018076 177.3981 096.6167 01.00268986    00
0 irnss1b 2021-02-03 0.8717682281738659 2021-01-27 2021-02-03
1 99999U          21034.00000000 +.00000000 +20000-3 +00000-0 4    00
2 99999 028.9173 273.4491 0017927 177.2082 097.8184 01.00269092    00
0 irnss1b 2021-02-04 0.27735607244548943 2021-01-28 2021-02-04
1 99999U          21035.00000000 +.00000000 +19010-1 +00000-0 4    00
2 99999 028.9170 273.4296 0017951 176.4723 099.5670 01.00270244    00
0 irnss1b 2021-02-05 0.060132257172526904 2021-01-29 2021-02-05
1 99999U          21036.00000000 +.00000000 +19851-1 +00000-0 4    00
2 99999 028.9166 273.4126 0018001 176.0449 101.0042 01.00272009    00
0 irnss1b 2021-02-06 0.05619551191399281 2021-01-30 2021-02-06
1 99999U          21037.00000000 +.00000000 +20555-1 +00000-0 4    00
2 99999 028.9153 273.3980 0018129 175.7057 102.3491 01.00273943    00
0 irnss1b 2021-02-07 0.047544359196217446 2021-01-31 2021-02-07
1 99999U          21038.00000000 +.00000000 +20000-1 +00000-0 4    00
2 99999 028.9128 273.3851 0018295 175.5622 103.4980 01.00275740    00
0 irnss1b 2021-02-08 0.06475907052394245 2021-02-01 2021-02-08
1 99999U          21039.00000000 +.00000000 +19598-1 +00000-0 4    00
2 99999 028.9088 273.3727 0018473 175.5529 104.5142 01.00277040    00
0 irnss1b 2021-02-09 0.4382949849725713 2021-02-02 2021-02-09
1 99999U          21040.00000000 +.00000000 +41902-2 +00000-0 4    00
2 99999 028.9037 273.3592 0018568 175.8683 105.2110 01.00277785    00
0 irnss1b 2021-02-10 0.08504595403611966 2021-02-03 2021-02-10
1 99999U          21041.00000000 +.00000000 +19335-1 +00000-0 4    00
2 99999 028.8980 273.3439 0018771 175.8475 106.2458 01.00277613    00
0 irnss1b 2021-02-11 0.08161146189205762 2021-02-04 2021-02-11
1 99999U          21042.00000000 +.00000000 +20771-1 +00000-0 4    00
2 99999 028.8924 273.3263 0018893 176.0199 107.0934 01.00277039    00
0 irnss1b 2021-02-12 0.20650834505446744 2021-02-05 2021-02-12
1 99999U          21043.00000000 +.00000000 +20000-1 +00000-0 4    00
2 99999 028.8874 273.3064 0018979 176.2384 107.8993 01.00276205    00
0 irnss1b 2021-02-13 2.0461697824972958 2021-02-06 2021-02-13
1 99999U          21044.00000000 +.00000000 +00000-0 +00000-0 4    00
2 99999 028.8837 273.2851 0018940 176.6097 108.5520 01.00275125    00
0 irnss1b 2021-02-14 13.052727326666933 2021-02-07 2021-02-14
1 99999U          21045.00000000 +.00000000 +12927-1 +00000-0 4    00
2 99999 028.8807 273.2630 0019110 176.1614 109.9843 01.00271874    00
0 irnss1b 2021-02-15 11.192596233787777 2021-02-08 2021-02-15
1 99999U          21046.00000000 +.00000000 +18077-1 +00000-0 4    00
2 99999 028.8790 273.2414 0019213 175.6471 111.4786 01.00268499    00
0 irnss1b 2021-02-16 11.480466015699866 2021-02-09 2021-02-16
1 99999U          21047.00000000 +.00000000 +14443-1 +00000-0 4    00
2 99999 028.8782 273.2199 0019184 175.5677 112.5525 01.00267675    00
0 irnss1b 2021-02-17 7.493803197044017 2021-02-10 2021-02-17
1 99999U          21048.00000000 +.00000000 +16286-1 +00000-0 4    00
2 99999 028.8778 273.2005 0019191 175.1458 113.9587 01.00266340    00
0 irnss1b 2021-02-18 2.4192426629779242 2021-02-11 2021-02-18
1 99999U          21049.00000000 +.00000000 +17972-1 +00000-0 4    00
2 99999 028.8775 273.1826 0019169 174.6458 115.4429 01.00265713    00
0 irnss1b 2021-02-19 0.06273143702453925 2021-02-12 2021-02-19
1 99999U          21050.00000000 +.00000000 +19632-1 +00000-0 4    00
2 99999 028.8769 273.1666 0019144 174.2976 116.7805 01.00266350    00
0 irnss1b 2021-02-20 0.10102223650093128 2021-02-13 2021-02-20
1 99999U          21051.00000000 +.00000000 +20598-1 +00000-0 4    00
2 99999 028.8759 273.1518 0019117 173.7870 118.2813 01.00267287    00
0 irnss1b 2021-02-21 0.08281570001639918 2021-02-14 2021-02-21
1 99999U          21052.00000000 +.00000000 +19550-1 +00000-0 4    00
2 99999 028.8739 273.1377 0019136 173.3014 119.7576 01.00268376    00
0 irnss1b 2021-02-22 0.09398435553372504 2021-02-15 2021-02-22
1 99999U          21053.00000000 +.00000000 +19270-1 +49321+3 4    00
2 99999 028.8710 273.1243 0019200 172.8809 121.1697 01.00269546    00
0 irnss1b 2021-02-23 0.25574932358222846 2021-02-16 2021-02-23
1 99999U          21054.00000000 +.00000000 +18236-1 +00000-0 4    00
2 99999 028.8672 273.1101 0019304 172.6546 122.3897 01.00270674    00
0 irnss1b 2021-02-24 0.08055162458646133 2021-02-17 2021-02-24
1 99999U          21055.00000000 +.00000000 +18958-1 +00000-0 4    00
2 99999 028.8624 273.0946 0019433 172.6464 123.3963 01.00271767    00
0 irnss1b 2021-02-25 0.05898373275921338 2021-02-18 2021-02-25
1 99999U          21056.00000000 +.00000000 +19048-1 +00000-0 4    00
2 99999 028.8574 273.0771 0019547 172.9018 124.1431 01.00272548    00
